ONEWEB-0198             
1 48216U 21031G   26201.94688316 -.00000194  00000+0 -55660-3 0  9994
2 48216  87.8952 282.9823 0002514  96.9182 263.2234 13.14503192252924
ONEWEB-0189             
1 48217U 21031H   26201.73108113 -.00000106  00000+0 -31964-3 0  9998
2 48217  87.8966 283.0155 0002362  98.1238 262.0160 13.14503187252634
ONEWEB-0196             
1 48218U 21031J   26201.93723173 -.00000196  00000+0 -56235-3 0  9997
2 48218  87.8965 282.9829 0002182  96.8832 263.2546 13.14502722252663
ONEWEB-0183             
1 48219U 21031K   26201.75962506  .00000192  00000+0  48442-3 0  9998
2 48219  87.8962 283.0157 0001887  93.7502 266.3844 13.14502149252734
ONEWEB-0185             
1 48220U 21031L   26201.93800615 -.00000175  00000+0 -50535-3 0  9991
2 48220  87.8968 282.9759 0002085  86.8284 273.3084 13.14501212252687
ONEWEB-0187             
1 48221U 21031M   26201.76582253  .00000100  00000+0  23651-3 0  9993
2 48221  87.8964 283.0237 0002151  95.0984 265.0391 13.14502801252673
ONEWEB-0192             
1 48222U 21031N   26201.73583453  .00000007  00000+0 -15032-4 0  9996
2 48222  87.8958 283.0198 0002135 100.1402 259.9969 13.14503579252584
ONEWEB-0219             
1 48223U 21031P   26201.94355725 -.00000440  00000+0 -12209-2 0  9992
2 48223  87.8971 282.9723 0002184  92.4847 267.6533 13.14501901252818
ONEWEB-0202             
1 48224U 21031Q   26201.77231529  .00000003  00000+0 -26025-4 0  9996
2 48224  87.8966 283.0182 0002699 103.2480 256.8951 13.14502556252775
ONEWEB-0204             
1 48225U 21031R   26201.73027750 -.00000092  00000+0 -28296-3 0  9992
2 48225  87.8964 283.0209 0001696  90.6319 269.5005 13.14503559252663
ONEWEB-0205             
1 48226U 21031S   26201.93405563 -.00000087  00000+0 -26987-3 0  9996
2 48226  87.8973 282.9760 0002255  93.4584 266.6804 13.14502810252700
ONEWEB-0206             
1 48227U 21031T   26201.75486519  .00000187  00000+0  46976-3 0  9996
2 48227  87.8968 283.0114 0001916 103.0383 257.0960 13.14501887252630
ONEWEB-0182             
1 48228U 21031U   26201.75009124  .00000153  00000+0  37752-3 0  9995
2 48228  87.8963 283.0188 0001851  95.0194 265.1147 13.14503784252843
ONEWEB-0186             
1 48229U 21031V   26201.76120489  .00000211  00000+0  53578-3 0  9994
2 48229  87.8974 283.0105 0002075  96.3944 263.7422 13.14503065252797
ONEWEB-0181             
1 48230U 21031W   26201.73899562  .00000059  00000+0  12579-3 0  9994
2 48230  87.8951 283.0387 0002214  96.4076 263.7306 13.14502025252648
ONEWEB-0188             
1 48231U 21031X   26201.77706167 -.00000019  00000+0 -86432-4 0  9995
2 48231  87.8955 283.0302 0002057  97.5951 262.5413 13.14502410252553
ONEWEB-0220             
1 48232U 21031Y   26201.74062575  .00000749  00000+0  19861-2 0  9999
2 48232  87.8968 283.0158 0002106  92.3659 267.7712 13.14501023252817
ONEWEB-0165             
1 48233U 21031Z   26201.76913378  .00000014  00000+0  21167-5 0  9998
2 48233  87.8966 283.0205 0002433  98.6336 261.5069 13.14503472252775
ONEWEB-0199             
1 48234U 21031AA  26201.75328339  .00000207  00000+0  52350-3 0  9995
2 48234  87.8970 283.0114 0001865 101.9283 258.2056 13.14502371252672
ONEWEB-0203             
1 48235U 21031AB  26201.74376776  .00000151  00000+0  37370-3 0  9996
2 48235  87.8967 283.0162 0002111 103.8959 256.2406 13.14501863252681
ONEWEB-0197             
1 48236U 21031AC  26201.79436297 -.00000199  00000+0 -57146-3 0  9994
2 48236  87.8960 282.9891 0001920  91.9769 268.1581 13.14502622252607
ONEWEB-0194             
1 48237U 21031AD  26201.77388006  .00000024  00000+0  28889-4 0  9995
2 48237  87.8965 283.0170 0001960 105.4933 254.6414 13.14503718252773
ONEWEB-0193             
1 48238U 21031AE  26201.71363422 -.00000263  00000+0 -74389-3 0  9997
2 48238  87.8964 283.0193 0001903 111.0931 249.0403 13.14502549252717
ONEWEB-0191             
1 48239U 21031AF  26201.72470755 -.00000579  00000+0 -15959-2 0  9994
2 48239  87.8970 283.0181 0001906  95.3398 264.7949 13.14503525252574
ONEWEB-0195             
1 48240U 21031AG  26201.77787154 -.00000233  00000+0 -66226-3 0  9996
2 48240  87.8973 283.0079 0002383  96.7728 263.3673 13.14505221252560
ONEWEB-0201             
1 48241U 21031AH  26201.68997917  .00000114  00000+0  27171-3 0  9999
2 48241  87.8963 283.0390 0001955  90.2857 269.8497 13.14502548252780
ONEWEB-0207             
1 48242U 21031AJ  26201.74613451  .00000205  00000+0  51807-3 0  9999
2 48242  87.8968 283.0148 0001942  91.8145 268.3207 13.14501155252708
ONEWEB-0208             
1 48243U 21031AK  26201.72790249 -.00000125  00000+0 -37235-3 0  9991
2 48243  87.8962 283.0231 0002415  99.2286 260.9117 13.14502809252716
ONEWEB-0200             
1 48244U 21031AL  26201.76755641  .00000088  00000+0  20208-3 0  9991
2 48244  87.8977 283.0049 0002115  96.2470 263.8901 13.14502225252646
ONEWEB-0217             
1 48245U 21031AM  26201.93564022 -.00000161  00000+0 -46907-3 0  9990
2 48245  87.8975 282.9756 0002431  99.1107 261.0298 13.14502791252612
